[{"OBJECT_NAME":"OBJECT P","OBJECT_ID":"2024-205P","EPOCH":"2026-03-09T08:03:09.212256","MEAN_MOTION":15.17390537,"ECCENTRICITY":0.00135969,"INCLINATION":97.4202,"RA_OF_ASC_NODE":142.9505,"ARG_OF_PERICENTER":48.7292,"MEAN_ANOMALY":311.511,"EPHEMERIS_TYPE":0,"CLASSIFICATION_TYPE":"U","NORAD_CAT_ID":61907,"ELEMENT_SET_NO":999,"REV_AT_EPOCH":7319,"BSTAR":0.00033938213,"MEAN_MOTION_DOT":6.731e-5,"MEAN_MOTION_DDOT":0},{"OBJECT_NAME":"STARLINK-34548","OBJECT_ID":"2025-142W","EPOCH":"2026-03-09T21:20:20.957280","MEAN_MOTION":14.99752914,"ECCENTRICITY":0.00111598,"INCLINATION":70.0032,"RA_OF_ASC_NODE":313.8354,"ARG_OF_PERICENTER":256.7432,"MEAN_ANOMALY":103.2483,"EPHEMERIS_TYPE":0,"CLASSIFICATION_TYPE":"U","NORAD_CAT_ID":64716,"ELEMENT_SET_NO":999,"REV_AT_EPOCH":3949,"BSTAR":0.071342808,"MEAN_MOTION_DOT":0.00948623,"MEAN_MOTION_DDOT":0}]
